COSMOS 1408 DEB
1 57271U 82092CBR 23185.95855081  .00032920  00000-0  12840-2 0  9996
2 57271  82.6070 271.2640 0126253 154.2160 206.5443 15.18583018    12
COSMOS 1408 DEB
1 57272U 82092CBS 23186.96888648  .00022143  00000-0  11573-2 0  9992
2 57272  82.5415 275.5071 0164974 196.6597 162.9176 15.04648640    12
COSMOS 1408 DEB
1 57273U 82092CBT 23187.18529220  .00046430  00000-0  38224-2 0  9993
2 57273  82.9064 353.8909 0371097  45.3443 317.7377 14.57886215    15
COSMOS 1408 DEB
1 57274U 82092CBU 23181.52236068  .00032937  00000-0  14750-2 0  9996
2 57274  82.5274 278.5488 0159068 205.0284 154.3178 15.10387310    16
COSMOS 1408 DEB
1 57275U 82092CBV 23184.43506655  .00039835  00000-0  84383-3 0  9996
2 57275  82.5509 251.2572 0038593 138.3043 222.1158 15.44097722    14
COSMOS 1408 DEB
1 57276U 82092CBW 23183.95476754  .00028050  00000-0  84072-3 0  9991
2 57276  82.5827 259.7061 0064682 127.9477 232.7635 15.32239416    19
COSMOS 1408 DEB
1 57277U 82092CBX 23184.90217090  .00043943  00000-0  89775-3 0  9997
2 57277  82.5604 251.4796 0037682 127.7226 232.7449 15.45181166    12
COSMOS 1408 DEB
1 57278U 82092CBY 23181.95264111  .00016739  00000-0  71390-3 0  9993
2 57278  82.5129 265.3733 0107525 163.3286 197.1529 15.17589389    17
COSMOS 1408 DEB
1 57279U 82092CBZ 23180.52122149  .00044496  00000-0  16352-2 0  9997
2 57279  82.5593 274.3879 0122300 179.1489 180.9980 15.20858844    12
COSMOS 1408 DEB
1 57282U 82092CCC 23187.97259113  .00045328  00000-0  21827-2 0  9997
2 57282  82.5404 278.0936 0151047 214.1892 144.9543 15.08969228    10
COSMOS 1408 DEB
1 57283U 82092CCD 23185.49418523  .00027040  00000-0  62242-3 0  9993
2 57283  82.5634 249.2157 0038313  97.2533 263.3071 15.41683237    15
COSMOS 1408 DEB
1 57284U 82092CCE 23180.95255266  .00049442  00000-0  15654-2 0  9997
2 57284  82.5419 266.2295 0085733 169.5396 190.7655 15.28945346    15
COSMOS 1408 DEB
1 57285U 82092CCF 23188.46973289  .00021845  00000-0  61769-3 0  9990
2 57285  82.5818 249.9703 0043477  97.0867 263.5323 15.35215643    17
COSMOS 1408 DEB
1 57286U 82092CCG 23187.97963494  .00006981  00000-0  48284-3 0  9994
2 57286  82.5631 281.1462 0186622 225.2225 133.3689 14.92410786    10
COSMOS 1408 DEB
1 57287U 82092CCH 23187.95079680  .00027530  00000-0  10999-2 0  9992
2 57287  82.5778 267.2573 0126733 149.0686 211.8095 15.17775450    15
